<?xml version='1.0' encoding='UTF-8'?>
<osm version="0.6" generator="Osmosis 0.48.3">
  <bounds minlon="-158.55473" minlat="-31.54105" maxlon="-132.53911" maxlat="-4.91579" origin="osmium/1.8.0"/>
  <node id="2062489702" version="3" timestamp="2017-02-13T09:18:21Z" lat="-9.8035066" lon="-139.0409117">
    <tag k="name" v="Espace Culturel Paul Gaugin"/>
    <tag k="tourism" v="museum"/>
  </node>
  <node id="4682717145" version="2" timestamp="2020-11-11T16:45:17Z" lat="-16.470099" lon="-151.7454802">
    <tag k="description" v="Ausstellung von Modellschiffen"/>
    <tag k="name" v="Musée de Marine"/>
    <tag k="tourism" v="museum"/>
  </node>
  <node id="4683069628" version="1" timestamp="2017-02-13T09:18:11Z" lat="-9.8036716" lon="-139.0407442">
    <tag k="name" v="Maison de Jouir"/>
    <tag k="tourism" v="museum"/>
    <tag k="description" v="Wohnhaus von Paul Gaugin"/>
  </node>
  <node id="4683069629" version="2" timestamp="2019-10-04T21:55:55Z" lat="-9.8046284" lon="-139.0405994">
    <tag k="name" v="Centre Jacques Brel"/>
    <tag k="tourism" v="museum"/>
  </node>
  <node id="4683069642" version="1" timestamp="2017-02-13T09:18:12Z" lat="-8.8283434" lon="-140.0819382">
    <tag k="name" v="Archeological Museum"/>
    <tag k="tourism" v="museum"/>
    <tag k="operator" v="Chez Yvonne"/>
  </node>
  <node id="4683070000" version="1" timestamp="2017-02-13T09:18:16Z" lat="-8.9315166" lon="-139.5544301">
    <tag k="name" v="Musée comunal de Ua Huka"/>
    <tag k="tourism" v="museum"/>
  </node>
  <node id="4683070021" version="1" timestamp="2017-02-13T09:18:16Z" lat="-8.9240696" lon="-139.5345241">
    <tag k="name" v="Musée de la Mer"/>
    <tag k="tourism" v="museum"/>
  </node>
  <node id="4683070024" version="2" timestamp="2020-12-06T08:09:28Z" lat="-8.9304634" lon="-139.5269066">
    <tag k="name" v="Maison du Pétroglyphe"/>
    <tag k="name:en" v="Petroglyphs"/>
    <tag k="tourism" v="museum"/>
  </node>
  <node id="5804937266" version="1" timestamp="2018-08-02T19:45:52Z" lat="-16.8748299" lon="-151.3704241">
    <tag k="name" v="Musée du Coquillage"/>
    <tag k="name:de" v="Muschelmuseum"/>
    <tag k="tourism" v="museum"/>
  </node>
  <node id="6361085089" version="1" timestamp="2019-03-25T20:08:16Z" lat="-8.9169627" lon="-140.1091124">
    <tag k="name" v="Musee de rose corser"/>
    <tag k="tourism" v="museum"/>
    <tag k="operator" v="rose corser"/>
  </node>
  <node id="6366258598" version="1" timestamp="2019-03-27T22:44:33Z" lat="-17.524608" lon="-149.519216">
    <tag k="name" v="Maison de James Norman Hall"/>
    <tag k="tourism" v="museum"/>
  </node>
  <node id="6366269790" version="1" timestamp="2019-03-27T22:44:35Z" lat="-17.5398748" lon="-149.5679301">
    <tag k="name" v="musée du street art"/>
    <tag k="tourism" v="museum"/>
  </node>
  <node id="6964797998" version="1" timestamp="2019-11-10T20:04:03Z" lat="-17.5183316" lon="-149.8506041">
    <tag k="tourism" v="museum"/>
  </node>
</osm>
